[{"OBJECT_NAME":"APRIZESAT 2","OBJECT_ID":"2004-025A","EPOCH":"2026-03-04T10:14:03.561504","MEAN_MOTION":14.37983898,"ECCENTRICITY":0.01051515,"INCLINATION":98.0902,"RA_OF_ASC_NODE":235.3906,"ARG_OF_PERICENTER":205.761,"MEAN_ANOMALY":153.832,"EPHEMERIS_TYPE":0,"CLASSIFICATION_TYPE":"U","NORAD_CAT_ID":28366,"ELEMENT_SET_NO":999,"REV_AT_EPOCH":13658,"BSTAR":0.0001718383,"MEAN_MOTION_DOT":5.11e-6,"MEAN_MOTION_DDOT":0},{"OBJECT_NAME":"SAUDICOMSAT 1","OBJECT_ID":"2004-025D","EPOCH":"2026-03-04T12:26:56.306400","MEAN_MOTION":14.55381828,"ECCENTRICITY":0.003188,"INCLINATION":98.5809,"RA_OF_ASC_NODE":70.8137,"ARG_OF_PERICENTER":346.3218,"MEAN_ANOMALY":13.7111,"EPHEMERIS_TYPE":0,"CLASSIFICATION_TYPE":"U","NORAD_CAT_ID":28369,"ELEMENT_SET_NO":999,"REV_AT_EPOCH":14890,"BSTAR":0.00017752,"MEAN_MOTION_DOT":7.26e-6,"MEAN_MOTION_DDOT":0},{"OBJECT_NAME":"SAUDICOMSAT 2","OBJECT_ID":"2004-025E","EPOCH":"2026-03-04T12:12:40.332960","MEAN_MOTION":14.49904473,"ECCENTRICITY":0.0054937,"INCLINATION":98.6685,"RA_OF_ASC_NODE":72.7795,"ARG_OF_PERICENTER":215.7275,"MEAN_ANOMALY":144.0237,"EPHEMERIS_TYPE":0,"CLASSIFICATION_TYPE":"U","NORAD_CAT_ID":28370,"ELEMENT_SET_NO":999,"REV_AT_EPOCH":14493,"BSTAR":0.00012884,"MEAN_MOTION_DOT":4.58e-6,"MEAN_MOTION_DDOT":0},{"OBJECT_NAME":"APRIZESAT 1","OBJECT_ID":"2004-025G","EPOCH":"2026-03-04T14:25:56.413632","MEAN_MOTION":14.5171033,"ECCENTRICITY":0.0045776,"INCLINATION":98.6344,"RA_OF_ASC_NODE":71.4634,"ARG_OF_PERICENTER":112.6778,"MEAN_ANOMALY":247.9265,"EPHEMERIS_TYPE":0,"CLASSIFICATION_TYPE":"U","NORAD_CAT_ID":28372,"ELEMENT_SET_NO":999,"REV_AT_EPOCH":14673,"BSTAR":0.00011691,"MEAN_MOTION_DOT":4.27e-6,"MEAN_MOTION_DDOT":0},{"OBJECT_NAME":"NANOSAT-1","OBJECT_ID":"2004-049B","EPOCH":"2026-03-04T18:50:14.392320","MEAN_MOTION":14.79902666,"ECCENTRICITY":0.0002823,"INCLINATION":98.209,"RA_OF_ASC_NODE":198.0131,"ARG_OF_PERICENTER":266.7537,"MEAN_ANOMALY":93.3351,"EPHEMERIS_TYPE":0,"CLASSIFICATION_TYPE":"U","NORAD_CAT_ID":28493,"ELEMENT_SET_NO":999,"REV_AT_EPOCH":14000,"BSTAR":0.00027502,"MEAN_MOTION_DOT":2.021e-5,"MEAN_MOTION_DDOT":0},{"OBJECT_NAME":"SAUDICOMSAT 7","OBJECT_ID":"2007-012C","EPOCH":"2026-03-03T19:13:30.046944","MEAN_MOTION":14.65959779,"ECCENTRICITY":0.0056083,"INCLINATION":98.3669,"RA_OF_ASC_NODE":34.8511,"ARG_OF_PERICENTER":165.4573,"MEAN_ANOMALY":194.8259,"EPHEMERIS_TYPE":0,"CLASSIFICATION_TYPE":"U","NORAD_CAT_ID":31119,"ELEMENT_SET_NO":999,"REV_AT_EPOCH":699,"BSTAR":0.00018362,"MEAN_MOTION_DOT":9.75e-6,"MEAN_MOTION_DDOT":0},{"OBJECT_NAME":"SAUDICOMSAT 6","OBJECT_ID":"2007-012E","EPOCH":"2026-03-04T09:53:45.832128","MEAN_MOTION":14.62420861,"ECCENTRICITY":0.00707704,"INCLINATION":98.3981,"RA_OF_ASC_NODE":29.0618,"ARG_OF_PERICENTER":293.5396,"MEAN_ANOMALY":65.8381,"EPHEMERIS_TYPE":0,"CLASSIFICATION_TYPE":"U","NORAD_CAT_ID":31121,"ELEMENT_SET_NO":999,"REV_AT_EPOCH":487,"BSTAR":0.00024904465,"MEAN_MOTION_DOT":1.252e-5,"MEAN_MOTION_DDOT":0},{"OBJECT_NAME":"SAUDICOMSAT 5","OBJECT_ID":"2007-012H","EPOCH":"2026-03-04T11:11:18.094560","MEAN_MOTION":14.67990535,"ECCENTRICITY":0.00488491,"INCLINATION":98.3383,"RA_OF_ASC_NODE":36.296,"ARG_OF_PERICENTER":94.9255,"MEAN_ANOMALY":265.7529,"EPHEMERIS_TYPE":0,"CLASSIFICATION_TYPE":"U","NORAD_CAT_ID":31124,"ELEMENT_SET_NO":999,"REV_AT_EPOCH":823,"BSTAR":0.00023957305,"MEAN_MOTION_DOT":1.344e-5,"MEAN_MOTION_DDOT":0},{"OBJECT_NAME":"SAUDICOMSAT 3","OBJECT_ID":"2007-012J","EPOCH":"2026-03-04T09:39:57.090240","MEAN_MOTION":14.70508837,"ECCENTRICITY":0.00399231,"INCLINATION":98.3041,"RA_OF_ASC_NODE":36.7917,"ARG_OF_PERICENTER":25.1326,"MEAN_ANOMALY":335.1811,"EPHEMERIS_TYPE":0,"CLASSIFICATION_TYPE":"U","NORAD_CAT_ID":31125,"ELEMENT_SET_NO":999,"REV_AT_EPOCH":942,"BSTAR":0.0003120362,"MEAN_MOTION_DOT":1.862e-5,"MEAN_MOTION_DDOT":0},{"OBJECT_NAME":"SAUDICOMSAT 4","OBJECT_ID":"2007-012L","EPOCH":"2026-03-04T11:30:37.647360","MEAN_MOTION":14.64369735,"ECCENTRICITY":0.00625713,"INCLINATION":98.3874,"RA_OF_ASC_NODE":33.9935,"ARG_OF_PERICENTER":224.7661,"MEAN_ANOMALY":134.8482,"EPHEMERIS_TYPE":0,"CLASSIFICATION_TYPE":"U","NORAD_CAT_ID":31127,"ELEMENT_SET_NO":999,"REV_AT_EPOCH":596,"BSTAR":0.00019936828,"MEAN_MOTION_DOT":1.03e-5,"MEAN_MOTION_DDOT":0},{"OBJECT_NAME":"APRIZESAT 4","OBJECT_ID":"2009-041D","EPOCH":"2026-03-04T04:36:48.081888","MEAN_MOTION":14.83696823,"ECCENTRICITY":0.00422744,"INCLINATION":98.1497,"RA_OF_ASC_NODE":136.4014,"ARG_OF_PERICENTER":303.0599,"MEAN_ANOMALY":56.6557,"EPHEMERIS_TYPE":0,"CLASSIFICATION_TYPE":"U","NORAD_CAT_ID":35684,"ELEMENT_SET_NO":999,"REV_AT_EPOCH":89579,"BSTAR":0.00015965538,"MEAN_MOTION_DOT":1.28e-5,"MEAN_MOTION_DDOT":0},{"OBJECT_NAME":"APRIZESAT 3","OBJECT_ID":"2009-041F","EPOCH":"2026-03-04T15:03:40.272480","MEAN_MOTION":14.9587688,"ECCENTRICITY":0.0063217,"INCLINATION":98.189,"RA_OF_ASC_NODE":211.9601,"ARG_OF_PERICENTER":53.2921,"MEAN_ANOMALY":307.4084,"EPHEMERIS_TYPE":0,"CLASSIFICATION_TYPE":"U","NORAD_CAT_ID":35686,"ELEMENT_SET_NO":999,"REV_AT_EPOCH":90074,"BSTAR":0.00028644,"MEAN_MOTION_DOT":3.266e-5,"MEAN_MOTION_DDOT":0},{"OBJECT_NAME":"S-NET D","OBJECT_ID":"2018-014G","EPOCH":"2026-03-04T06:15:15.757920","MEAN_MOTION":15.15543403,"ECCENTRICITY":0.00094275,"INCLINATION":97.5446,"RA_OF_ASC_NODE":328.7457,"ARG_OF_PERICENTER":32.5537,"MEAN_ANOMALY":327.6275,"EPHEMERIS_TYPE":0,"CLASSIFICATION_TYPE":"U","NORAD_CAT_ID":43186,"ELEMENT_SET_NO":999,"REV_AT_EPOCH":44286,"BSTAR":0.00051471028,"MEAN_MOTION_DOT":9.708e-5,"MEAN_MOTION_DDOT":0},{"OBJECT_NAME":"S-NET B","OBJECT_ID":"2018-014H","EPOCH":"2026-03-04T06:28:52.999968","MEAN_MOTION":15.1551587,"ECCENTRICITY":0.00098931,"INCLINATION":97.5454,"RA_OF_ASC_NODE":328.7383,"ARG_OF_PERICENTER":27.5757,"MEAN_ANOMALY":332.5999,"EPHEMERIS_TYPE":0,"CLASSIFICATION_TYPE":"U","NORAD_CAT_ID":43187,"ELEMENT_SET_NO":999,"REV_AT_EPOCH":44286,"BSTAR":0.00053100099,"MEAN_MOTION_DOT":0.00010011,"MEAN_MOTION_DDOT":0},{"OBJECT_NAME":"S-NET A","OBJECT_ID":"2018-014J","EPOCH":"2026-03-04T06:14:21.401952","MEAN_MOTION":15.15549843,"ECCENTRICITY":0.0009847,"INCLINATION":97.5464,"RA_OF_ASC_NODE":328.9181,"ARG_OF_PERICENTER":28.6783,"MEAN_ANOMALY":331.4989,"EPHEMERIS_TYPE":0,"CLASSIFICATION_TYPE":"U","NORAD_CAT_ID":43188,"ELEMENT_SET_NO":999,"REV_AT_EPOCH":44286,"BSTAR":0.00050848478,"MEAN_MOTION_DOT":9.592e-5,"MEAN_MOTION_DDOT":0},{"OBJECT_NAME":"S-NET C","OBJECT_ID":"2018-014K","EPOCH":"2026-03-04T16:04:07.778208","MEAN_MOTION":15.15513987,"ECCENTRICITY":0.0010966,"INCLINATION":97.5477,"RA_OF_ASC_NODE":329.3835,"ARG_OF_PERICENTER":18.9968,"MEAN_ANOMALY":341.1672,"EPHEMERIS_TYPE":0,"CLASSIFICATION_TYPE":"U","NORAD_CAT_ID":43189,"ELEMENT_SET_NO":999,"REV_AT_EPOCH":44147,"BSTAR":0.00048343,"MEAN_MOTION_DOT":9.109e-5,"MEAN_MOTION_DDOT":0},{"OBJECT_NAME":"SALSAT","OBJECT_ID":"2020-068K","EPOCH":"2026-03-04T12:00:02.662848","MEAN_MOTION":15.28060764,"ECCENTRICITY":0.00086882,"INCLINATION":97.8848,"RA_OF_ASC_NODE":60.3287,"ARG_OF_PERICENTER":318.7431,"MEAN_ANOMALY":41.3149,"EPHEMERIS_TYPE":0,"CLASSIFICATION_TYPE":"U","NORAD_CAT_ID":46495,"ELEMENT_SET_NO":999,"REV_AT_EPOCH":29936,"BSTAR":0.00053709432,"MEAN_MOTION_DOT":0.00014646,"MEAN_MOTION_DDOT":0}]
